CCSDS_OMM_VERS = 2.0
CREATION_DATE  = 
ORIGINATOR     = 

OBJECT_NAME    = COSMOS 2242
OBJECT_ID      = 1993-024A
CENTER_NAME    = EARTH
REF_FRAME      = TEME
TIME_SYSTEM    = UTC
MEAN_ELEMENT_THEORY = SGP/SGP4

EPOCH          = 2026-03-31T03:57:27.169920
MEAN_MOTION    = 14.96643554
ECCENTRICITY   = .0015203
INCLINATION    = 82.5167
RA_OF_ASC_NODE = 246.1693
ARG_OF_PERICENTER = 229.9227
MEAN_ANOMALY   = 130.0663

EPHEMERIS_TYPE = 0
CLASSIFICATION_TYPE = U
NORAD_CAT_ID   = 22626
ELEMENT_SET_NO = 999
REV_AT_EPOCH   = 78360
BSTAR          = .2905E-3
MEAN_MOTION_DOT = .3344E-4
MEAN_MOTION_DDOT = 0

CCSDS_OMM_VERS = 2.0
CREATION_DATE  = 
ORIGINATOR     = 

OBJECT_NAME    = SL-16 R/B
OBJECT_ID      = 1993-059B
CENTER_NAME    = EARTH
REF_FRAME      = TEME
TIME_SYSTEM    = UTC
MEAN_ELEMENT_THEORY = SGP/SGP4

EPOCH          = 2026-03-31T01:47:37.232736
MEAN_MOTION    = 14.17234538
ECCENTRICITY   = .0017296
INCLINATION    = 70.9914
RA_OF_ASC_NODE = 326.0327
ARG_OF_PERICENTER = 185.3137
MEAN_ANOMALY   = 174.7806

EPHEMERIS_TYPE = 0
CLASSIFICATION_TYPE = U
NORAD_CAT_ID   = 22803
ELEMENT_SET_NO = 999
REV_AT_EPOCH   = 68256
BSTAR          = -.53685E-4
MEAN_MOTION_DOT = -.157E-5
MEAN_MOTION_DDOT = 0

CCSDS_OMM_VERS = 2.0
CREATION_DATE  = 
ORIGINATOR     = 

OBJECT_NAME    = ARIANE 40 R/B
OBJECT_ID      = 1993-061H
CENTER_NAME    = EARTH
REF_FRAME      = TEME
TIME_SYSTEM    = UTC
MEAN_ELEMENT_THEORY = SGP/SGP4

EPOCH          = 2026-03-31T03:16:30.747072
MEAN_MOTION    = 14.32872478
ECCENTRICITY   = .0010129
INCLINATION    = 98.4876
RA_OF_ASC_NODE = 158.5968
ARG_OF_PERICENTER = 215.1770
MEAN_ANOMALY   = 144.8746

EPHEMERIS_TYPE = 0
CLASSIFICATION_TYPE = U
NORAD_CAT_ID   = 22830
ELEMENT_SET_NO = 999
REV_AT_EPOCH   = 69717
BSTAR          = .1109E-3
MEAN_MOTION_DOT = .26E-5
MEAN_MOTION_DDOT = 0

CCSDS_OMM_VERS = 2.0
CREATION_DATE  = 
ORIGINATOR     = 

OBJECT_NAME    = COSMOS 2278
OBJECT_ID      = 1994-023A
CENTER_NAME    = EARTH
REF_FRAME      = TEME
TIME_SYSTEM    = UTC
MEAN_ELEMENT_THEORY = SGP/SGP4

EPOCH          = 2026-03-31T04:02:31.577856
MEAN_MOTION    = 14.14374979
ECCENTRICITY   = .0009226
INCLINATION    = 71.0511
RA_OF_ASC_NODE = 130.1629
ARG_OF_PERICENTER = 340.6482
MEAN_ANOMALY   = 19.4289

EPHEMERIS_TYPE = 0
CLASSIFICATION_TYPE = U
NORAD_CAT_ID   = 23087
ELEMENT_SET_NO = 999
REV_AT_EPOCH   = 64784
BSTAR          = -.43989E-4
MEAN_MOTION_DOT = -.131E-5
MEAN_MOTION_DDOT = 0

CCSDS_OMM_VERS = 2.0
CREATION_DATE  = 
ORIGINATOR     = 

OBJECT_NAME    = SL-16 R/B
OBJECT_ID      = 1994-023B
CENTER_NAME    = EARTH
REF_FRAME      = TEME
TIME_SYSTEM    = UTC
MEAN_ELEMENT_THEORY = SGP/SGP4

EPOCH          = 2026-03-31T03:13:44.898816
MEAN_MOTION    = 14.15017134
ECCENTRICITY   = .0005501
INCLINATION    = 71.0024
RA_OF_ASC_NODE = 25.8491
ARG_OF_PERICENTER = 266.1305
MEAN_ANOMALY   = 93.9188

EPHEMERIS_TYPE = 0
CLASSIFICATION_TYPE = U
NORAD_CAT_ID   = 23088
ELEMENT_SET_NO = 999
REV_AT_EPOCH   = 64912
BSTAR          = .1868E-3
MEAN_MOTION_DOT = .314E-5
MEAN_MOTION_DDOT = 0

CCSDS_OMM_VERS = 2.0
CREATION_DATE  = 
ORIGINATOR     = 

OBJECT_NAME    = SL-16 R/B
OBJECT_ID      = 1994-074B
CENTER_NAME    = EARTH
REF_FRAME      = TEME
TIME_SYSTEM    = UTC
MEAN_ELEMENT_THEORY = SGP/SGP4

EPOCH          = 2026-03-31T02:22:42.876768
MEAN_MOTION    = 14.79432610
ECCENTRICITY   = .0007445
INCLINATION    = 97.7076
RA_OF_ASC_NODE = 120.0470
ARG_OF_PERICENTER = 141.9004
MEAN_ANOMALY   = 282.1094

EPHEMERIS_TYPE = 0
CLASSIFICATION_TYPE = U
NORAD_CAT_ID   = 23343
ELEMENT_SET_NO = 999
REV_AT_EPOCH   = 69041
BSTAR          = .90552E-4
MEAN_MOTION_DOT = .627E-5
MEAN_MOTION_DDOT = 0

CCSDS_OMM_VERS = 2.0
CREATION_DATE  = 
ORIGINATOR     = 

OBJECT_NAME    = SL-16 R/B
OBJECT_ID      = 1994-077B
CENTER_NAME    = EARTH
REF_FRAME      = TEME
TIME_SYSTEM    = UTC
MEAN_ELEMENT_THEORY = SGP/SGP4

EPOCH          = 2026-03-31T00:53:26.474208
MEAN_MOTION    = 14.15569067
ECCENTRICITY   = .0001818
INCLINATION    = 70.9830
RA_OF_ASC_NODE = 307.5799
ARG_OF_PERICENTER = 195.4629
MEAN_ANOMALY   = 164.6438

EPHEMERIS_TYPE = 0
CLASSIFICATION_TYPE = U
NORAD_CAT_ID   = 23405
ELEMENT_SET_NO = 999
REV_AT_EPOCH   = 61925
BSTAR          = -.36084E-4
MEAN_MOTION_DOT = -.119E-5
MEAN_MOTION_DDOT = 0

CCSDS_OMM_VERS = 2.0
CREATION_DATE  = 
ORIGINATOR     = 

OBJECT_NAME    = ARIANE 40+ R/B
OBJECT_ID      = 1995-021B
CENTER_NAME    = EARTH
REF_FRAME      = TEME
TIME_SYSTEM    = UTC
MEAN_ELEMENT_THEORY = SGP/SGP4

EPOCH          = 2026-03-31T03:39:25.061760
MEAN_MOTION    = 14.39788030
ECCENTRICITY   = .0007894
INCLINATION    = 98.4459
RA_OF_ASC_NODE = 161.3402
ARG_OF_PERICENTER = 81.2505
MEAN_ANOMALY   = 342.5771

EPHEMERIS_TYPE = 0
CLASSIFICATION_TYPE = U
NORAD_CAT_ID   = 23561
ELEMENT_SET_NO = 999
REV_AT_EPOCH   = 62233
BSTAR          = .13564E-3
MEAN_MOTION_DOT = .382E-5
MEAN_MOTION_DDOT = 0

CCSDS_OMM_VERS = 2.0
CREATION_DATE  = 
ORIGINATOR     = 

OBJECT_NAME    = SL-16 R/B
OBJECT_ID      = 1995-058B
CENTER_NAME    = EARTH
REF_FRAME      = TEME
TIME_SYSTEM    = UTC
MEAN_ELEMENT_THEORY = SGP/SGP4

EPOCH          = 2026-03-31T02:46:45.702336
MEAN_MOTION    = 14.15498450
ECCENTRICITY   = .0010177
INCLINATION    = 71.0198
RA_OF_ASC_NODE = 135.2742
ARG_OF_PERICENTER = 86.2739
MEAN_ANOMALY   = 273.9548

EPHEMERIS_TYPE = 0
CLASSIFICATION_TYPE = U
NORAD_CAT_ID   = 23705
ELEMENT_SET_NO = 999
REV_AT_EPOCH   = 57088
BSTAR          = -.78597E-4
MEAN_MOTION_DOT = -.201E-5
MEAN_MOTION_DDOT = 0

CCSDS_OMM_VERS = 2.0
CREATION_DATE  = 
ORIGINATOR     = 

OBJECT_NAME    = SL-16 R/B
OBJECT_ID      = 1996-051B
CENTER_NAME    = EARTH
REF_FRAME      = TEME
TIME_SYSTEM    = UTC
MEAN_ELEMENT_THEORY = SGP/SGP4

EPOCH          = 2026-03-31T03:05:48.814080
MEAN_MOTION    = 14.12421978
ECCENTRICITY   = .0013354
INCLINATION    = 70.7584
RA_OF_ASC_NODE = 129.8619
ARG_OF_PERICENTER = 113.2023
MEAN_ANOMALY   = 247.0505

EPHEMERIS_TYPE = 0
CLASSIFICATION_TYPE = U
NORAD_CAT_ID   = 24298
ELEMENT_SET_NO = 999
REV_AT_EPOCH   = 52467
BSTAR          = .10431E-3
MEAN_MOTION_DOT = .143E-5
MEAN_MOTION_DDOT = 0

CCSDS_OMM_VERS = 2.0
CREATION_DATE  = 
ORIGINATOR     = 

OBJECT_NAME    = ORBVIEW 2 (SEASTAR)
OBJECT_ID      = 1997-037A
CENTER_NAME    = EARTH
REF_FRAME      = TEME
TIME_SYSTEM    = UTC
MEAN_ELEMENT_THEORY = SGP/SGP4

EPOCH          = 2026-03-30T22:56:13.509888
MEAN_MOTION    = 14.35510016
ECCENTRICITY   = .0002295
INCLINATION    = 98.8604
RA_OF_ASC_NODE = 254.8351
ARG_OF_PERICENTER = 24.7885
MEAN_ANOMALY   = 335.3409

EPHEMERIS_TYPE = 0
CLASSIFICATION_TYPE = U
NORAD_CAT_ID   = 24883
ELEMENT_SET_NO = 999
REV_AT_EPOCH   = 51152
BSTAR          = .14293E-3
MEAN_MOTION_DOT = .364E-5
MEAN_MOTION_DDOT = 0

CCSDS_OMM_VERS = 2.0
CREATION_DATE  = 
ORIGINATOR     = 

OBJECT_NAME    = SL-16 R/B
OBJECT_ID      = 1998-043G
CENTER_NAME    = EARTH
REF_FRAME      = TEME
TIME_SYSTEM    = UTC
MEAN_ELEMENT_THEORY = SGP/SGP4

EPOCH          = 2026-03-31T03:09:10.996128
MEAN_MOTION    = 14.26054792
ECCENTRICITY   = .0009109
INCLINATION    = 98.8290
RA_OF_ASC_NODE = 43.6516
ARG_OF_PERICENTER = 317.3194
MEAN_ANOMALY   = 42.7277

EPHEMERIS_TYPE = 0
CLASSIFICATION_TYPE = U
NORAD_CAT_ID   = 25400
ELEMENT_SET_NO = 999
REV_AT_EPOCH   = 44204
BSTAR          = .52382E-4
MEAN_MOTION_DOT = .8E-6
MEAN_MOTION_DDOT = 0

