COSMOS 2242             
1 22626U 93024A   26090.16489780  .00003344  00000+0  29050-3 0  9998
2 22626  82.5167 246.1693 0015203 229.9227 130.0663 14.96643554783604
SL-16 R/B               
1 22803U 93059B   26090.07473649 -.00000157  00000+0 -53685-4 0  9993
2 22803  70.9914 326.0327 0017296 185.3137 174.7806 14.17234538682561
ARIANE 40 R/B           
1 22830U 93061H   26090.13646698  .00000260  00000+0  11090-3 0  9995
2 22830  98.4876 158.5968 0010129 215.1770 144.8746 14.32872478697177
COSMOS 2278             
1 23087U 94023A   26090.16842104 -.00000131  00000+0 -43989-4 0  9994
2 23087  71.0511 130.1629 0009226 340.6482  19.4289 14.14374979647846
SL-16 R/B               
1 23088U 94023B   26090.13454744  .00000314  00000+0  18680-3 0  9991
2 23088  71.0024  25.8491 0005501 266.1305  93.9188 14.15017134649127
SL-16 R/B               
1 23343U 94074B   26090.09910737  .00000627  00000+0  90552-4 0  9991
2 23343  97.7076 120.0470 0007445 141.9004 282.1094 14.79432610690419
SL-16 R/B               
1 23405U 94077B   26090.03711197 -.00000119  00000+0 -36084-4 0  9994
2 23405  70.9830 307.5799 0001818 195.4629 164.6438 14.15569067619256
ARIANE 40+ R/B          
1 23561U 95021B   26090.15237340  .00000382  00000+0  13564-3 0  9990
2 23561  98.4459 161.3402 0007894  81.2505 342.5771 14.39788030622332
SL-16 R/B               
1 23705U 95058B   26090.11580674 -.00000201  00000+0 -78597-4 0  9997
2 23705  71.0198 135.2742 0010177  86.2739 273.9548 14.15498450570887
SL-16 R/B               
1 24298U 96051B   26090.12903720  .00000143  00000+0  10431-3 0  9996
2 24298  70.7584 129.8619 0013354 113.2023 247.0505 14.12421978524678
ORBVIEW 2 (SEASTAR)     
1 24883U 97037A   26089.95571192  .00000364  00000+0  14293-3 0  9999
2 24883  98.8604 254.8351 0002295  24.7885 335.3409 14.35510016511529
SL-16 R/B               
1 25400U 98043G   26090.13137727  .00000080  00000+0  52382-4 0  9994
2 25400  98.8290  43.6516 0009109 317.3194  42.7277 14.26054792442044
